ONEWEB-0289             
1 49079U 21075E   24057.36728307  .00000085  00000+0  18640-3 0  9992
2 49079  87.9260 173.3317 0001794 100.0403 260.0931 13.17649341123340
ONEWEB-0290             
1 49080U 21075F   24057.34987351  .00000096  00000+0  21303-3 0  9990
2 49080  87.9260 173.2979 0001183 109.9873 250.1386 13.17649472122759
ONEWEB-0291             
1 49081U 21075G   24057.33406159  .00000092  00000+0  20277-3 0  9997
2 49081  87.9255 173.3281 0001486 114.9030 245.2256 13.17649635122749
ONEWEB-0293             
1 49082U 21075H   24057.35934769  .00001203  00000+0  30642-2 0  9994
2 49082  87.9258 173.3305 0001472 107.0420 253.0873 13.17661470122777
ONEWEB-0294             
1 49083U 21075J   24057.28840637  .00000025  00000+0  34913-4 0  9995
2 49083  87.9037 158.2169 0001104 118.9139 241.2101 13.12440940124141
ONEWEB-0295             
1 49084U 21075K   24057.36095884  .00000056  00000+0  10984-3 0  9996
2 49084  87.9262 173.3064 0001568 124.1284 235.9996 13.17649081122735
ONEWEB-0296             
1 49085U 21075L   24057.34717638  .00000682  00000+0  18601-2 0  9991
2 49085  87.9041 158.2046 0001499 134.2376 225.8876 13.12443127124151
ONEWEB-0297             
1 49086U 21075M   24057.30269435 -.00000360  00000+0 -10351-2 0  9994
2 49086  87.9050 158.2119 0001923 107.5840 252.5499 13.12441619124752
