<?xml version="1.0" encoding="UTF-8"?>
<ndm xmlns:xsi="http://www.w3.org/2001/XMLSchema-instance" xsi:noNamespaceSchemaLocation="https://sanaregistry.org/r/ndmxml_unqualified/ndmxml-2.0.0-master-2.0.xsd">
<omm id="CCSDS_OMM_VERS" version="2.0">
<header><CREATION_DATE/><ORIGINATOR/></header><body><segment><metadata><OBJECT_NAME>ONEWEB-0289</OBJECT_NAME><OBJECT_ID>2021-075E</OBJECT_ID><CENTER_NAME>EARTH</CENTER_NAME><REF_FRAME>TEME</REF_FRAME><TIME_SYSTEM>UTC</TIME_SYSTEM><MEAN_ELEMENT_THEORY>SGP4</MEAN_ELEMENT_THEORY></metadata><data><meanElements><EPOCH>2024-02-26T08:48:53.257248</EPOCH><MEAN_MOTION>13.17649341</MEAN_MOTION><ECCENTRICITY>.0001794</ECCENTRICITY><INCLINATION>87.9260</INCLINATION><RA_OF_ASC_NODE>173.3317</RA_OF_ASC_NODE><ARG_OF_PERICENTER>100.0403</ARG_OF_PERICENTER><MEAN_ANOMALY>260.0931</MEAN_ANOMALY></meanElements><tleParameters><EPHEMERIS_TYPE>0</EPHEMERIS_TYPE><CLASSIFICATION_TYPE>U</CLASSIFICATION_TYPE><NORAD_CAT_ID>49079</NORAD_CAT_ID><ELEMENT_SET_NO>999</ELEMENT_SET_NO><REV_AT_EPOCH>12334</REV_AT_EPOCH><BSTAR>.1864E-3</BSTAR><MEAN_MOTION_DOT>.85E-6</MEAN_MOTION_DOT><MEAN_MOTION_DDOT>0</MEAN_MOTION_DDOT></tleParameters></data></segment></body></omm>
<omm id="CCSDS_OMM_VERS" version="2.0">
<header><CREATION_DATE/><ORIGINATOR/></header><body><segment><metadata><OBJECT_NAME>ONEWEB-0290</OBJECT_NAME><OBJECT_ID>2021-075F</OBJECT_ID><CENTER_NAME>EARTH</CENTER_NAME><REF_FRAME>TEME</REF_FRAME><TIME_SYSTEM>UTC</TIME_SYSTEM><MEAN_ELEMENT_THEORY>SGP4</MEAN_ELEMENT_THEORY></metadata><data><meanElements><EPOCH>2024-02-26T08:23:49.071264</EPOCH><MEAN_MOTION>13.17649472</MEAN_MOTION><ECCENTRICITY>.0001183</ECCENTRICITY><INCLINATION>87.9260</INCLINATION><RA_OF_ASC_NODE>173.2979</RA_OF_ASC_NODE><ARG_OF_PERICENTER>109.9873</ARG_OF_PERICENTER><MEAN_ANOMALY>250.1386</MEAN_ANOMALY></meanElements><tleParameters><EPHEMERIS_TYPE>0</EPHEMERIS_TYPE><CLASSIFICATION_TYPE>U</CLASSIFICATION_TYPE><NORAD_CAT_ID>49080</NORAD_CAT_ID><ELEMENT_SET_NO>999</ELEMENT_SET_NO><REV_AT_EPOCH>12275</REV_AT_EPOCH><BSTAR>.21303E-3</BSTAR><MEAN_MOTION_DOT>.96E-6</MEAN_MOTION_DOT><MEAN_MOTION_DDOT>0</MEAN_MOTION_DDOT></tleParameters></data></segment></body></omm>
<omm id="CCSDS_OMM_VERS" version="2.0">
<header><CREATION_DATE/><ORIGINATOR/></header><body><segment><metadata><OBJECT_NAME>ONEWEB-0291</OBJECT_NAME><OBJECT_ID>2021-075G</OBJECT_ID><CENTER_NAME>EARTH</CENTER_NAME><REF_FRAME>TEME</REF_FRAME><TIME_SYSTEM>UTC</TIME_SYSTEM><MEAN_ELEMENT_THEORY>SGP4</MEAN_ELEMENT_THEORY></metadata><data><meanElements><EPOCH>2024-02-26T08:01:02.921376</EPOCH><MEAN_MOTION>13.17649635</MEAN_MOTION><ECCENTRICITY>.0001486</ECCENTRICITY><INCLINATION>87.9255</INCLINATION><RA_OF_ASC_NODE>173.3281</RA_OF_ASC_NODE><ARG_OF_PERICENTER>114.9030</ARG_OF_PERICENTER><MEAN_ANOMALY>245.2256</MEAN_ANOMALY></meanElements><tleParameters><EPHEMERIS_TYPE>0</EPHEMERIS_TYPE><CLASSIFICATION_TYPE>U</CLASSIFICATION_TYPE><NORAD_CAT_ID>49081</NORAD_CAT_ID><ELEMENT_SET_NO>999</ELEMENT_SET_NO><REV_AT_EPOCH>12274</REV_AT_EPOCH><BSTAR>.20277E-3</BSTAR><MEAN_MOTION_DOT>.92E-6</MEAN_MOTION_DOT><MEAN_MOTION_DDOT>0</MEAN_MOTION_DDOT></tleParameters></data></segment></body></omm>
<omm id="CCSDS_OMM_VERS" version="2.0">
<header><CREATION_DATE/><ORIGINATOR/></header><body><segment><metadata><OBJECT_NAME>ONEWEB-0293</OBJECT_NAME><OBJECT_ID>2021-075H</OBJECT_ID><CENTER_NAME>EARTH</CENTER_NAME><REF_FRAME>TEME</REF_FRAME><TIME_SYSTEM>UTC</TIME_SYSTEM><MEAN_ELEMENT_THEORY>SGP4</MEAN_ELEMENT_THEORY></metadata><data><meanElements><EPOCH>2024-02-26T08:37:27.640416</EPOCH><MEAN_MOTION>13.17661470</MEAN_MOTION><ECCENTRICITY>.0001472</ECCENTRICITY><INCLINATION>87.9258</INCLINATION><RA_OF_ASC_NODE>173.3305</RA_OF_ASC_NODE><ARG_OF_PERICENTER>107.0420</ARG_OF_PERICENTER><MEAN_ANOMALY>253.0873</MEAN_ANOMALY></meanElements><tleParameters><EPHEMERIS_TYPE>0</EPHEMERIS_TYPE><CLASSIFICATION_TYPE>U</CLASSIFICATION_TYPE><NORAD_CAT_ID>49082</NORAD_CAT_ID><ELEMENT_SET_NO>999</ELEMENT_SET_NO><REV_AT_EPOCH>12277</REV_AT_EPOCH><BSTAR>.30642E-2</BSTAR><MEAN_MOTION_DOT>.1203E-4</MEAN_MOTION_DOT><MEAN_MOTION_DDOT>0</MEAN_MOTION_DDOT></tleParameters></data></segment></body></omm>
<omm id="CCSDS_OMM_VERS" version="2.0">
<header><CREATION_DATE/><ORIGINATOR/></header><body><segment><metadata><OBJECT_NAME>ONEWEB-0294</OBJECT_NAME><OBJECT_ID>2021-075J</OBJECT_ID><CENTER_NAME>EARTH</CENTER_NAME><REF_FRAME>TEME</REF_FRAME><TIME_SYSTEM>UTC</TIME_SYSTEM><MEAN_ELEMENT_THEORY>SGP4</MEAN_ELEMENT_THEORY></metadata><data><meanElements><EPOCH>2024-02-26T06:55:18.310368</EPOCH><MEAN_MOTION>13.12440940</MEAN_MOTION><ECCENTRICITY>.0001104</ECCENTRICITY><INCLINATION>87.9037</INCLINATION><RA_OF_ASC_NODE>158.2169</RA_OF_ASC_NODE><ARG_OF_PERICENTER>118.9139</ARG_OF_PERICENTER><MEAN_ANOMALY>241.2101</MEAN_ANOMALY></meanElements><tleParameters><EPHEMERIS_TYPE>0</EPHEMERIS_TYPE><CLASSIFICATION_TYPE>U</CLASSIFICATION_TYPE><NORAD_CAT_ID>49083</NORAD_CAT_ID><ELEMENT_SET_NO>999</ELEMENT_SET_NO><REV_AT_EPOCH>12414</REV_AT_EPOCH><BSTAR>.34913E-4</BSTAR><MEAN_MOTION_DOT>.25E-6</MEAN_MOTION_DOT><MEAN_MOTION_DDOT>0</MEAN_MOTION_DDOT></tleParameters></data></segment></body></omm>
<omm id="CCSDS_OMM_VERS" version="2.0">
<header><CREATION_DATE/><ORIGINATOR/></header><body><segment><metadata><OBJECT_NAME>ONEWEB-0295</OBJECT_NAME><OBJECT_ID>2021-075K</OBJECT_ID><CENTER_NAME>EARTH</CENTER_NAME><REF_FRAME>TEME</REF_FRAME><TIME_SYSTEM>UTC</TIME_SYSTEM><MEAN_ELEMENT_THEORY>SGP4</MEAN_ELEMENT_THEORY></metadata><data><meanElements><EPOCH>2024-02-26T08:39:46.843776</EPOCH><MEAN_MOTION>13.17649081</MEAN_MOTION><ECCENTRICITY>.0001568</ECCENTRICITY><INCLINATION>87.9262</INCLINATION><RA_OF_ASC_NODE>173.3064</RA_OF_ASC_NODE><ARG_OF_PERICENTER>124.1284</ARG_OF_PERICENTER><MEAN_ANOMALY>235.9996</MEAN_ANOMALY></meanElements><tleParameters><EPHEMERIS_TYPE>0</EPHEMERIS_TYPE><CLASSIFICATION_TYPE>U</CLASSIFICATION_TYPE><NORAD_CAT_ID>49084</NORAD_CAT_ID><ELEMENT_SET_NO>999</ELEMENT_SET_NO><REV_AT_EPOCH>12273</REV_AT_EPOCH><BSTAR>.10984E-3</BSTAR><MEAN_MOTION_DOT>.56E-6</MEAN_MOTION_DOT><MEAN_MOTION_DDOT>0</MEAN_MOTION_DDOT></tleParameters></data></segment></body></omm>
<omm id="CCSDS_OMM_VERS" version="2.0">
<header><CREATION_DATE/><ORIGINATOR/></header><body><segment><metadata><OBJECT_NAME>ONEWEB-0296</OBJECT_NAME><OBJECT_ID>2021-075L</OBJECT_ID><CENTER_NAME>EARTH</CENTER_NAME><REF_FRAME>TEME</REF_FRAME><TIME_SYSTEM>UTC</TIME_SYSTEM><MEAN_ELEMENT_THEORY>SGP4</MEAN_ELEMENT_THEORY></metadata><data><meanElements><EPOCH>2024-02-26T08:19:56.039232</EPOCH><MEAN_MOTION>13.12443127</MEAN_MOTION><ECCENTRICITY>.0001499</ECCENTRICITY><INCLINATION>87.9041</INCLINATION><RA_OF_ASC_NODE>158.2046</RA_OF_ASC_NODE><ARG_OF_PERICENTER>134.2376</ARG_OF_PERICENTER><MEAN_ANOMALY>225.8876</MEAN_ANOMALY></meanElements><tleParameters><EPHEMERIS_TYPE>0</EPHEMERIS_TYPE><CLASSIFICATION_TYPE>U</CLASSIFICATION_TYPE><NORAD_CAT_ID>49085</NORAD_CAT_ID><ELEMENT_SET_NO>999</ELEMENT_SET_NO><REV_AT_EPOCH>12415</REV_AT_EPOCH><BSTAR>.18601E-2</BSTAR><MEAN_MOTION_DOT>.682E-5</MEAN_MOTION_DOT><MEAN_MOTION_DDOT>0</MEAN_MOTION_DDOT></tleParameters></data></segment></body></omm>
<omm id="CCSDS_OMM_VERS" version="2.0">
<header><CREATION_DATE/><ORIGINATOR/></header><body><segment><metadata><OBJECT_NAME>ONEWEB-0297</OBJECT_NAME><OBJECT_ID>2021-075M</OBJECT_ID><CENTER_NAME>EARTH</CENTER_NAME><REF_FRAME>TEME</REF_FRAME><TIME_SYSTEM>UTC</TIME_SYSTEM><MEAN_ELEMENT_THEORY>SGP4</MEAN_ELEMENT_THEORY></metadata><data><meanElements><EPOCH>2024-02-26T07:15:52.791840</EPOCH><MEAN_MOTION>13.12441619</MEAN_MOTION><ECCENTRICITY>.0001923</ECCENTRICITY><INCLINATION>87.9050</INCLINATION><RA_OF_ASC_NODE>158.2119</RA_OF_ASC_NODE><ARG_OF_PERICENTER>107.5840</ARG_OF_PERICENTER><MEAN_ANOMALY>252.5499</MEAN_ANOMALY></meanElements><tleParameters><EPHEMERIS_TYPE>0</EPHEMERIS_TYPE><CLASSIFICATION_TYPE>U</CLASSIFICATION_TYPE><NORAD_CAT_ID>49086</NORAD_CAT_ID><ELEMENT_SET_NO>999</ELEMENT_SET_NO><REV_AT_EPOCH>12475</REV_AT_EPOCH><BSTAR>-.10351E-2</BSTAR><MEAN_MOTION_DOT>-.36E-5</MEAN_MOTION_DOT><MEAN_MOTION_DDOT>0</MEAN_MOTION_DDOT></tleParameters></data></segment></body></omm>

</ndm>
